[{"CCSDS_OMM_VERS":"3.0","COMMENT":"GENERATED VIA SPACE-TRACK.ORG API","CREATION_DATE":"2026-06-14T18:05:06","ORIGINATOR":"18 SPCS","OBJECT_NAME":"BEIDOU 3M12","OBJECT_ID":"2018-067B","CENTER_NAME":"EARTH","REF_FRAME":"TEME","TIME_SYSTEM":"UTC","MEAN_ELEMENT_THEORY":"SGP4","EPOCH":"2026-06-14T08:37:19.994880","MEAN_MOTION":"1.86227183","ECCENTRICITY":"0.00044374","INCLINATION":"54.1775","RA_OF_ASC_NODE":"181.0999","ARG_OF_PERICENTER":"12.9310","MEAN_ANOMALY":"347.1309","EPHEMERIS_TYPE":"0","CLASSIFICATION_TYPE":"U","NORAD_CAT_ID":"43603","ELEMENT_SET_NO":"999","REV_AT_EPOCH":"5309","BSTAR":"0.00000000000000","MEAN_MOTION_DOT":"0.00000099","MEAN_MOTION_DDOT":"0.0000000000000","SEMIMAJOR_AXIS":"27906.570","PERIOD":"773.249","APOAPSIS":"21540.818","PERIAPSIS":"21516.052","OBJECT_TYPE":"PAYLOAD","RCS_SIZE":"LARGE","COUNTRY_CODE":"PRC","LAUNCH_DATE":"2018-08-24","SITE":"XSC","DECAY_DATE":null,"FILE":"5246732","GP_ID":"329423564","TLE_LINE0":"0 BEIDOU 3M12","TLE_LINE1":"1 43603U 18067B   26165.35925920  .00000099  00000-0  00000-0 0  9991","TLE_LINE2":"2 43603  54.1775 181.0999 0004437  12.9310 347.1309  1.86227183 53090"},{"CCSDS_OMM_VERS":"3.0","COMMENT":"GENERATED VIA SPACE-TRACK.ORG API","CREATION_DATE":"2026-06-14T15:06:49","ORIGINATOR":"18 SPCS","OBJECT_NAME":"BEIDOU 3M12","OBJECT_ID":"2018-067B","CENTER_NAME":"EARTH","REF_FRAME":"TEME","TIME_SYSTEM":"UTC","MEAN_ELEMENT_THEORY":"SGP4","EPOCH":"2026-06-14T08:37:19.994880","MEAN_MOTION":"1.86227183","ECCENTRICITY":"0.00044370","INCLINATION":"54.1775","RA_OF_ASC_NODE":"181.0999","ARG_OF_PERICENTER":"12.9310","MEAN_ANOMALY":"347.1309","EPHEMERIS_TYPE":"0","CLASSIFICATION_TYPE":"U","NORAD_CAT_ID":"43603","ELEMENT_SET_NO":"999","REV_AT_EPOCH":"5309","BSTAR":"0.00000000000000","MEAN_MOTION_DOT":"0.00000099","MEAN_MOTION_DDOT":"0.0000000000000","SEMIMAJOR_AXIS":"27906.570","PERIOD":"773.249","APOAPSIS":"21540.817","PERIAPSIS":"21516.053","OBJECT_TYPE":"PAYLOAD","RCS_SIZE":"LARGE","COUNTRY_CODE":"PRC","LAUNCH_DATE":"2018-08-24","SITE":"XSC","DECAY_DATE":null,"FILE":"5246186","GP_ID":"329355383","TLE_LINE0":"0 BEIDOU 3M12","TLE_LINE1":"1 43603U 18067B   26165.35925920  .00000099  00000-0  00000+0 0  9990","TLE_LINE2":"2 43603  54.1775 181.0999 0004437  12.9310 347.1309  1.86227183 53090"},{"CCSDS_OMM_VERS":"3.0","COMMENT":"GENERATED VIA SPACE-TRACK.ORG API","CREATION_DATE":"2026-06-17T17:43:15","ORIGINATOR":"18 SPCS","OBJECT_NAME":"BEIDOU 3M12","OBJECT_ID":"2018-067B","CENTER_NAME":"EARTH","REF_FRAME":"TEME","TIME_SYSTEM":"UTC","MEAN_ELEMENT_THEORY":"SGP4","EPOCH":"2026-06-17T01:03:24.179904","MEAN_MOTION":"1.86227157","ECCENTRICITY":"0.00044718","INCLINATION":"54.1777","RA_OF_ASC_NODE":"181.0088","ARG_OF_PERICENTER":"12.8999","MEAN_ANOMALY":"347.1406","EPHEMERIS_TYPE":"0","CLASSIFICATION_TYPE":"U","NORAD_CAT_ID":"43603","ELEMENT_SET_NO":"999","REV_AT_EPOCH":"5314","BSTAR":"0.00000000000000","MEAN_MOTION_DOT":"0.00000061","MEAN_MOTION_DDOT":"0.0000000000000","SEMIMAJOR_AXIS":"27906.572","PERIOD":"773.249","APOAPSIS":"21540.917","PERIAPSIS":"21515.958","OBJECT_TYPE":"PAYLOAD","RCS_SIZE":"LARGE","COUNTRY_CODE":"PRC","LAUNCH_DATE":"2018-08-24","SITE":"XSC","DECAY_DATE":null,"FILE":"5252865","GP_ID":"330230075","TLE_LINE0":"0 BEIDOU 3M12","TLE_LINE1":"1 43603U 18067B   26168.04402986  .00000061  00000-0  00000-0 0  9991","TLE_LINE2":"2 43603  54.1777 181.0088 0004472  12.8999 347.1406  1.86227157 53147"},{"CCSDS_OMM_VERS":"3.0","COMMENT":"GENERATED VIA SPACE-TRACK.ORG API","CREATION_DATE":"2026-06-17T07:47:30","ORIGINATOR":"18 SPCS","OBJECT_NAME":"BEIDOU 3M12","OBJECT_ID":"2018-067B","CENTER_NAME":"EARTH","REF_FRAME":"TEME","TIME_SYSTEM":"UTC","MEAN_ELEMENT_THEORY":"SGP4","EPOCH":"2026-06-17T01:03:24.179904","MEAN_MOTION":"1.86227157","ECCENTRICITY":"0.00044720","INCLINATION":"54.1777","RA_OF_ASC_NODE":"181.0088","ARG_OF_PERICENTER":"12.8999","MEAN_ANOMALY":"347.1406","EPHEMERIS_TYPE":"0","CLASSIFICATION_TYPE":"U","NORAD_CAT_ID":"43603","ELEMENT_SET_NO":"999","REV_AT_EPOCH":"5314","BSTAR":"0.00000000000000","MEAN_MOTION_DOT":"0.00000061","MEAN_MOTION_DDOT":"0.0000000000000","SEMIMAJOR_AXIS":"27906.572","PERIOD":"773.249","APOAPSIS":"21540.917","PERIAPSIS":"21515.958","OBJECT_TYPE":"PAYLOAD","RCS_SIZE":"LARGE","COUNTRY_CODE":"PRC","LAUNCH_DATE":"2018-08-24","SITE":"XSC","DECAY_DATE":null,"FILE":"5251833","GP_ID":"330116228","TLE_LINE0":"0 BEIDOU 3M12","TLE_LINE1":"1 43603U 18067B   26168.04402986  .00000061  00000-0  00000+0 0  9990","TLE_LINE2":"2 43603  54.1777 181.0088 0004472  12.8999 347.1406  1.86227157 53147"},{"CCSDS_OMM_VERS":"3.0","COMMENT":"GENERATED VIA SPACE-TRACK.ORG API","CREATION_DATE":"2026-06-18T17:45:15","ORIGINATOR":"18 SPCS","OBJECT_NAME":"BEIDOU 3M12","OBJECT_ID":"2018-067B","CENTER_NAME":"EARTH","REF_FRAME":"TEME","TIME_SYSTEM":"UTC","MEAN_ELEMENT_THEORY":"SGP4","EPOCH":"2026-06-18T02:49:50.193984","MEAN_MOTION":"1.86227138","ECCENTRICITY":"0.00044817","INCLINATION":"54.1778","RA_OF_ASC_NODE":"180.9723","ARG_OF_PERICENTER":"12.8258","MEAN_ANOMALY":"347.2086","EPHEMERIS_TYPE":"0","CLASSIFICATION_TYPE":"U","NORAD_CAT_ID":"43603","ELEMENT_SET_NO":"999","REV_AT_EPOCH":"5316","BSTAR":"0.00000000000000","MEAN_MOTION_DOT":"0.00000056","MEAN_MOTION_DDOT":"0.0000000000000","SEMIMAJOR_AXIS":"27906.574","PERIOD":"773.249","APOAPSIS":"21540.946","PERIAPSIS":"21515.932","OBJECT_TYPE":"PAYLOAD","RCS_SIZE":"LARGE","COUNTRY_CODE":"PRC","LAUNCH_DATE":"2018-08-24","SITE":"XSC","DECAY_DATE":null,"FILE":"5253513","GP_ID":"330388440","TLE_LINE0":"0 BEIDOU 3M12","TLE_LINE1":"1 43603U 18067B   26169.11794206  .00000056  00000-0  00000-0 0  9993","TLE_LINE2":"2 43603  54.1778 180.9723 0004482  12.8258 347.2086  1.86227138 53167"},{"CCSDS_OMM_VERS":"3.0","COMMENT":"GENERATED VIA SPACE-TRACK.ORG API","CREATION_DATE":"2026-06-18T21:46:39","ORIGINATOR":"18 SPCS","OBJECT_NAME":"BEIDOU 3M12","OBJECT_ID":"2018-067B","CENTER_NAME":"EARTH","REF_FRAME":"TEME","TIME_SYSTEM":"UTC","MEAN_ELEMENT_THEORY":"SGP4","EPOCH":"2026-06-18T02:49:50.193984","MEAN_MOTION":"1.86227138","ECCENTRICITY":"0.00044820","INCLINATION":"54.1778","RA_OF_ASC_NODE":"180.9722","ARG_OF_PERICENTER":"12.8258","MEAN_ANOMALY":"347.2086","EPHEMERIS_TYPE":"0","CLASSIFICATION_TYPE":"U","NORAD_CAT_ID":"43603","ELEMENT_SET_NO":"999","REV_AT_EPOCH":"5316","BSTAR":"0.00000000000000","MEAN_MOTION_DOT":"0.00000056","MEAN_MOTION_DDOT":"0.0000000000000","SEMIMAJOR_AXIS":"27906.574","PERIOD":"773.249","APOAPSIS":"21540.947","PERIAPSIS":"21515.932","OBJECT_TYPE":"PAYLOAD","RCS_SIZE":"LARGE","COUNTRY_CODE":"PRC","LAUNCH_DATE":"2018-08-24","SITE":"XSC","DECAY_DATE":null,"FILE":"5254015","GP_ID":"330456140","TLE_LINE0":"0 BEIDOU 3M12","TLE_LINE1":"1 43603U 18067B   26169.11794206  .00000056  00000-0  00000+0 0  9992","TLE_LINE2":"2 43603  54.1778 180.9722 0004482  12.8258 347.2086  1.86227138 53166"},{"CCSDS_OMM_VERS":"3.0","COMMENT":"GENERATED VIA SPACE-TRACK.ORG API","CREATION_DATE":"2026-06-18T11:14:27","ORIGINATOR":"18 SPCS","OBJECT_NAME":"BEIDOU 3M12","OBJECT_ID":"2018-067B","CENTER_NAME":"EARTH","REF_FRAME":"TEME","TIME_SYSTEM":"UTC","MEAN_ELEMENT_THEORY":"SGP4","EPOCH":"2026-06-18T02:49:50.213856","MEAN_MOTION":"1.86227137","ECCENTRICITY":"0.00044763","INCLINATION":"54.1777","RA_OF_ASC_NODE":"180.9723","ARG_OF_PERICENTER":"12.8525","MEAN_ANOMALY":"347.1819","EPHEMERIS_TYPE":"0","CLASSIFICATION_TYPE":"U","NORAD_CAT_ID":"43603","ELEMENT_SET_NO":"999","REV_AT_EPOCH":"5316","BSTAR":"0.00000000000000","MEAN_MOTION_DOT":"0.00000056","MEAN_MOTION_DDOT":"0.0000000000000","SEMIMAJOR_AXIS":"27906.575","PERIOD":"773.249","APOAPSIS":"21540.931","PERIAPSIS":"21515.948","OBJECT_TYPE":"PAYLOAD","RCS_SIZE":"LARGE","COUNTRY_CODE":"PRC","LAUNCH_DATE":"2018-08-24","SITE":"XSC","DECAY_DATE":null,"FILE":"5253499","GP_ID":"330353866","TLE_LINE0":"0 BEIDOU 3M12","TLE_LINE1":"1 43603U 18067B   26169.11794229  .00000056  00000-0  00000-0 0  9998","TLE_LINE2":"2 43603  54.1777 180.9723 0004476  12.8525 347.1819  1.86227137 53168"},{"CCSDS_OMM_VERS":"3.0","COMMENT":"GENERATED VIA SPACE-TRACK.ORG API","CREATION_DATE":"2026-06-19T02:57:24","ORIGINATOR":"18 SPCS","OBJECT_NAME":"BEIDOU 3M12","OBJECT_ID":"2018-067B","CENTER_NAME":"EARTH","REF_FRAME":"TEME","TIME_SYSTEM":"UTC","MEAN_ELEMENT_THEORY":"SGP4","EPOCH":"2026-06-18T15:43:03.362592","MEAN_MOTION":"1.86227132","ECCENTRICITY":"0.00044953","INCLINATION":"54.1778","RA_OF_ASC_NODE":"180.9540","ARG_OF_PERICENTER":"12.7503","MEAN_ANOMALY":"347.2821","EPHEMERIS_TYPE":"0","CLASSIFICATION_TYPE":"U","NORAD_CAT_ID":"43603","ELEMENT_SET_NO":"999","REV_AT_EPOCH":"5317","BSTAR":"0.00000000000000","MEAN_MOTION_DOT":"0.00000056","MEAN_MOTION_DDOT":"0.0000000000000","SEMIMAJOR_AXIS":"27906.575","PERIOD":"773.249","APOAPSIS":"21540.985","PERIAPSIS":"21515.895","OBJECT_TYPE":"PAYLOAD","RCS_SIZE":"LARGE","COUNTRY_CODE":"PRC","LAUNCH_DATE":"2018-08-24","SITE":"XSC","DECAY_DATE":null,"FILE":"5255019","GP_ID":"330569359","TLE_LINE0":"0 BEIDOU 3M12","TLE_LINE1":"1 43603U 18067B   26169.65490003  .00000056  00000-0  00000-0 0  9990","TLE_LINE2":"2 43603  54.1778 180.9540 0004495  12.7503 347.2821  1.86227132 53172"}]